[{"OBJECT_NAME":"STARLINK-1143","OBJECT_ID":"2020-012B","EPOCH":"2026-03-09T22:47:16.050048","MEAN_MOTION":15.62989311,"ECCENTRICITY":0.00073955,"INCLINATION":53.0474,"RA_OF_ASC_NODE":328.6332,"ARG_OF_PERICENTER":96.968,"MEAN_ANOMALY":263.2175,"EPHEMERIS_TYPE":0,"CLASSIFICATION_TYPE":"U","NORAD_CAT_ID":45179,"ELEMENT_SET_NO":999,"REV_AT_EPOCH":33596,"BSTAR":0.0013180943,"MEAN_MOTION_DOT":0.00123267,"MEAN_MOTION_DDOT":0},{"OBJECT_NAME":"HRC MONOBLOCK CAMERA","OBJECT_ID":"1998-067XR","EPOCH":"2026-03-09T09:07:55.754688","MEAN_MOTION":15.62163367,"ECCENTRICITY":0.00036673,"INCLINATION":51.6279,"RA_OF_ASC_NODE":67.0928,"ARG_OF_PERICENTER":90.6396,"MEAN_ANOMALY":269.5018,"EPHEMERIS_TYPE":0,"CLASSIFICATION_TYPE":"U","NORAD_CAT_ID":66052,"ELEMENT_SET_NO":999,"REV_AT_EPOCH":2234,"BSTAR":0.00060520784,"MEAN_MOTION_DOT":0.0005407,"MEAN_MOTION_DDOT":0}]
